NORAD_CAT_ID,OBJECT_NAME,OBJECT_TYPE,EPOCH,MEAN_MOTION,ECCENTRICITY,INCLINATION,RA_OF_ASC_NODE,ARG_OF_PERICENTER,MEAN_ANOMALY,BSTAR,MEAN_MOTION_DOT,MEAN_MOTION_DDOT,TLE_LINE0,TLE_LINE1,TLE_LINE2,SEMIMAJOR_AXIS,PERIOD,APOGEE,PERIGEE,DECAYED
51784.0,STARLINK-3632,PAYLOAD,2022-04-30 14:00:01,15.19345637,0.0001987,53.2176,195.1064,35.0104,75.7932,-0.036319,-0.00724181,0.0,0 STARLINK-3632,1 51784U 22017S   22120.58334491 -.00724181  00000-0 -36319-1 0  9999,2 51784  53.2176 195.1064 0001987  35.0104  75.7932 15.19345637  3634,6885.954000000002,94.778,509.187,506.451,0.0
51784.0,STARLINK-3632,PAYLOAD,2022-04-30 22:00:00,15.18835769,0.0001758,53.2175,193.584,42.2779,92.4347,-0.036844,-0.00723818,0.0,0 STARLINK-3632,1 51784U 22017S   22120.91667824 -.00723818  00000-0 -36844-1 0  9994,2 51784  53.2175 193.5840 0001758  42.2779  92.4347 15.18835769  3669,6887.495,94.809,510.571,508.149,0.0
51784.0,STARLINK-3632,PAYLOAD,2022-05-01 06:00:00,15.18324922,0.0001993,53.2177,192.0638,36.838,121.1707,-0.037299,-0.00722118,0.0,0 STARLINK-3632,1 51784U 22017S   22121.25001157 -.00722118  00000-0 -37299-1 0  9990,2 51784  53.2177 192.0638 0001993  36.8380 121.1707 15.18324922 11290,6889.04,94.841,512.278,509.532,0.0
51784.0,STARLINK-3632,PAYLOAD,2022-05-01 14:00:01,15.17813915,0.0002048,53.2176,190.5469,36.7669,143.924,-0.03778,-0.0072079,0.0,0 STARLINK-3632,1 51784U 22017S   22121.58334491 -.00720790  00000-0 -37780-1 0  9995,2 51784  53.2176 190.5469 0002048  36.7669 143.9240 15.17813915  3632,6890.5859999999975,94.873,513.862,511.04,0.0
51784.0,STARLINK-3632,PAYLOAD,2022-05-01 22:00:01,15.17306046,0.0001768,53.2175,189.0278,45.7222,157.102,-0.038513,-0.00723826,0.0,0 STARLINK-3632,1 51784U 22017S   22121.91668981 -.00723826  00000-0 -38513-1 0  9994,2 51784  53.2175 189.0278 0001768  45.7222 157.1020 15.17306046  3652,6892.123000000001,94.905,515.207,512.77,0.0
51784.0,STARLINK-3632,PAYLOAD,2022-05-02 06:00:00,15.16707008,0.0001993,53.2166,187.5126,44.0187,180.2448,-0.032127,-0.00594925,0.0,0 STARLINK-3632,1 51784U 22017S   22122.25001157 -.00594925  00000-0 -32127-1 0  9999,2 51784  53.2166 187.5126 0001993  44.0187 180.2448 15.16707008 11459,6893.938,94.943,517.177,514.429,0.0
51784.0,STARLINK-3632,PAYLOAD,2022-05-02 14:00:01,15.16283356,0.0001914,53.2176,185.998,40.8763,204.1865,-0.039395,-0.00719295,0.0,0 STARLINK-3632,1 51784U 22017S   22122.58334491 -.00719295  00000-0 -39395-1 0  9998,2 51784  53.2176 185.9980 0001914  40.8763 204.1865 15.16283356 11507,6895.222,94.969,518.4069999999998,515.7669999999998,0.0
51784.0,STARLINK-3632,PAYLOAD,2022-05-02 22:00:01,15.15776175,0.0001662,53.2176,184.4824,47.9032,217.4543,-0.040247,-0.00723897,0.0,0 STARLINK-3632,1 51784U 22017S   22122.91668981 -.00723897  00000-0 -40247-1 0  9990,2 51784  53.2176 184.4824 0001662  47.9032 217.4543 15.15776175  3646,6896.76,95.001,519.771,517.479,0.0
51784.0,STARLINK-3632,PAYLOAD,2022-05-03 14:00:01,15.14753566,0.0001581,53.2175,181.4598,51.1352,252.784,-0.041154,-0.00719271,0.0,0 STARLINK-3632,1 51784U 22017S   22123.58334491 -.00719271  00000-0 -41154-1 0  9999,2 51784  53.2175 181.4598 0001581  51.1352 252.7840 15.14753566 11652,6899.864000000001,95.065,522.82,520.638,0.0
51784.0,STARLINK-3632,PAYLOAD,2022-05-03 22:00:00,15.14245721,0.000167,53.2175,179.9478,41.802,280.5109,-0.041994,-0.00723176,0.0,0 STARLINK-3632,1 51784U 22017S   22123.91667824 -.00723176  00000-0 -41994-1 0  9996,2 51784  53.2175 179.9478 0001670  41.8020 280.5109 15.14245721  3644,6901.406,95.097,524.424,522.119,0.0
51784.0,STARLINK-3632,PAYLOAD,2022-05-04 14:00:01,15.13223673,0.0001585999999999,53.2175,176.9324,45.8993,311.3614,-0.042983,-0.00719396,0.0,0 STARLINK-3632,1 51784U 22017S   22124.58334491 -.00719396  00000-0 -42983-1 0  9999,2 51784  53.2175 176.9324 0001586  45.8993 311.3614 15.13223673 11802,6904.514,95.161,527.474,525.284,0.0
51784.0,STARLINK-3632,PAYLOAD,2022-05-04 22:00:01,15.12714938,0.0001615,53.2175,175.4238,42.1152,331.7642,-0.043772,-0.00722001,0.0,0 STARLINK-3632,1 51784U 22017S   22124.91668981 -.00722001  00000-0 -43772-1 0  9994,2 51784  53.2175 175.4238 0001615  42.1152 331.7642 15.12714938  3648,6906.062,95.193,529.0419999999998,526.811,0.0
51784.0,STARLINK-3632,PAYLOAD,2022-05-05 14:00:01,15.11693244,0.0001827,53.2175,172.4156,36.242,8.8453,-0.044819,-0.00718668,0.0,0 STARLINK-3632,1 51784U 22017S   22125.58334491 -.00718668  00000-0 -44819-1 0  9991,2 51784  53.2175 172.4156 0001827  36.2420   8.8453 15.11693244  3648,6909.1730000000025,95.257,532.3,529.776,0.0
51784.0,STARLINK-3632,PAYLOAD,2022-05-05 16:00:00,15.11566916,0.0001939,53.2172,172.0393,37.1768,101.6468,-0.045077,-0.00720163,0.0,0 STARLINK-3632,1 51784U 22017S   22125.66667824 -.00720163  00000-0 -45077-1 0  9999,2 51784  53.2172 172.0393 0001939  37.1768 101.6468 15.11566916 11960,6909.558000000001,95.265,532.763,530.0830000000002,0.0
51784.0,STARLINK-3632,PAYLOAD,2022-05-05 22:00:00,15.11184351,0.0001658,53.2175,170.9106,41.282,18.5226,-0.045612,-0.00720888,0.0,0 STARLINK-3632,1 51784U 22017S   22125.91667824 -.00720888  00000-0 -45612-1 0  9996,2 51784  53.2175 170.9106 0001658  41.2820  18.5226 15.11184351  3637,6910.724,95.289,533.735,531.443,0.0
51784.0,STARLINK-3632,PAYLOAD,2022-05-06 14:00:01,15.10162735,0.0001872,53.2173,167.9094,36.8373,50.5614,-0.046697,-0.00717634,0.0,0 STARLINK-3632,1 51784U 22017S   22126.58334491 -.00717634  00000-0 -46697-1 0  9990,2 51784  53.2173 167.9094 0001872  36.8373  50.5614 15.10162735  3658,6913.84,95.354,537.0,534.411,0.0
51784.0,STARLINK-3632,PAYLOAD,2022-05-06 22:00:00,15.09655084,0.000181,53.2174,166.4081,38.2721,62.0053,-0.047717,-0.00722698,0.0,0 STARLINK-3632,1 51784U 22017S   22126.91667824 -.00722698  00000-0 -47717-1 0  9996,2 51784  53.2174 166.4081 0001810  38.2721  62.0053 15.09655084 12156,6915.39,95.386,538.507,536.003,0.0
51784.0,STARLINK-3632,PAYLOAD,2022-05-07 06:00:02,15.09001586,0.0001895,53.2174,164.9106,36.9946,75.6332,-0.015667,-0.00242425,0.0,0 STARLINK-3632,1 51784U 22017S   22127.25002315 -.00242425  00000-0 -15667-1 0  9996,2 51784  53.2174 164.9106 0001895  36.9946  75.6332 15.09001586 12202,6917.387,95.427,540.562,537.941,0.0
51784.0,STARLINK-3632,PAYLOAD,2022-05-07 14:00:01,15.08835384,0.0001664,53.2172,163.415,47.0984,77.1469,0.00021931,3.204e-05,0.0,0 STARLINK-3632,1 51784U 22017S   22127.58334491  .00003204  00000-0  21931-3 0  9996,2 51784  53.2172 163.4150 0001664  47.0984  77.1469 15.08835384 12255,6917.894,95.438,540.911,538.6080000000002,0.0
51784.0,STARLINK-3632,PAYLOAD,2022-05-07 22:00:00,15.08840489,0.0001684,53.2125,161.9252,35.2989,100.6537,0.0024876,0.00039525,0.0,0 STARLINK-3632,1 51784U 22017S   22127.91667824  .00039525  00000-0  24876-2 0  9997,2 51784  53.2125 161.9252 0001684  35.2989 100.6537 15.08840489 12301,6917.879,95.438,540.909,538.5790000000002,0.0
51784.0,STARLINK-3632,PAYLOAD,2022-05-08 06:00:00,15.08877817,0.0001858,53.2134,160.4295,38.3363,109.2136,-0.0056374,-0.00088994,0.0,0 STARLINK-3632,1 51784U 22017S   22128.25001157 -.00088994  00000-0 -56374-2 0  9990,2 51784  53.2134 160.4295 0001858  38.3363 109.2136 15.08877817 12355,6917.765,95.435,540.915,538.344,0.0
51784.0,STARLINK-3632,PAYLOAD,2022-05-08 14:00:01,15.088181900000002,0.0002031,53.2132,158.934,35.0832,124.0639,-0.0005135,-8.447e-05,0.0,0 STARLINK-3632,1 51784U 22017S   22128.58334491 -.00008447  00000-0 -51350-3 0  9991,2 51784  53.2132 158.9340 0002031  35.0832 124.0639 15.08818190  3638,6917.946999999999,95.439,541.217,538.4069999999998,0.0
51784.0,STARLINK-3632,PAYLOAD,2022-05-08 20:00:01,15.08803862,0.0001849,53.2137,157.8102,38.1197,39.7167,-0.00069841,-0.00011375,0.0,0 STARLINK-3632,1 51784U 22017S   22128.83334491 -.00011375  00000-0 -69841-3 0  9997,2 51784  53.2137 157.8102 0001849  38.1197  39.7167 15.08803862 12448,6917.991,95.44,541.135,538.577,0.0
51784.0,STARLINK-3632,PAYLOAD,2022-05-08 22:00:00,15.087662300000002,0.000182,53.2136,157.4358,38.0397,132.6955,0.0044934,0.00071809,0.0,0 STARLINK-3632,1 51784U 22017S   22128.91667824  .00071809  00000-0  44934-2 0  9996,2 51784  53.2136 157.4358 0001820  38.0397 132.6955 15.08766230  3632,6918.106,95.442,541.23,538.712,0.0
51784.0,STARLINK-3632,PAYLOAD,2022-05-09 06:00:00,15.08837579,0.0001999,53.214,155.9404,40.482,141.7867,-0.0010930999999999,-0.00017642,0.0,0 STARLINK-3632,1 51784U 22017S   22129.25001157 -.00017642  00000-0 -10931-2 0  9992,2 51784  53.2140 155.9404 0001999  40.4820 141.7867 15.08837579 12512,6917.888000000001,95.438,541.136,538.37,0.0
51784.0,STARLINK-3632,PAYLOAD,2022-05-09 14:00:01,15.08823122,0.0002124,53.2137,154.4447,36.8056,157.1091,0.0013321,0.00020966,0.0,0 STARLINK-3632,1 51784U 22017S   22129.58335648  .00020966  00000-0  13321-2 0  9990,2 51784  53.2137 154.4447 0002124  36.8056 157.1091 15.08823122  3632,6917.932,95.439,541.266,538.328,0.0
51784.0,STARLINK-3632,PAYLOAD,2022-05-09 22:00:00,15.08818463,0.0001931,53.214,152.9465,41.2296,164.2219,0.0026744,0.00042507,0.0,0 STARLINK-3632,1 51784U 22017S   22129.91667824  .00042507  00000-0  26744-2 0  9999,2 51784  53.2140 152.9465 0001931  41.2296 164.2219 15.08818463  3622,6917.946,95.439,541.1469999999998,538.475,0.0
51784.0,STARLINK-3632,PAYLOAD,2022-05-10 00:00:00,15.08824056,0.0001936,53.2141,152.5722,43.0262,255.3203,0.0026035,0.00041373,0.0,0 STARLINK-3632,1 51784U 22017S   22130.00001157  .00041373  00000-0  26035-2 0  9995,2 51784  53.2141 152.5722 0001936  43.0262 255.3203 15.08824056 12623,6917.929,95.439,541.133,538.455,0.0
51784.0,STARLINK-3632,PAYLOAD,2022-05-10 14:00:01,15.08845125,0.000211,53.2139,149.9552,38.6301,190.0444,0.00057168,8.823e-05,0.0,0 STARLINK-3632,1 51784U 22017S   22130.58334491  .00008823  00000-0  57168-3 0  9993,2 51784  53.2139 149.9552 0002110  38.6301 190.0444 15.08845125  3622,6917.865,95.437,541.189,538.27,0.0
